NORAD_CAT_ID,OBJECT_NAME,OBJECT_TYPE,EPOCH,MEAN_MOTION,ECCENTRICITY,INCLINATION,RA_OF_ASC_NODE,ARG_OF_PERICENTER,MEAN_ANOMALY,BSTAR,MEAN_MOTION_DOT,MEAN_MOTION_DDOT,TLE_LINE0,TLE_LINE1,TLE_LINE2,SEMIMAJOR_AXIS,PERIOD,APOGEE,PERIGEE,DECAYED
52584.0,STARLINK-3922,PAYLOAD,2023-07-10 22:37:06,15.0883679,0.0001149,53.2157,165.95,85.8797,274.2326,5.6041e-05,6.04e-06,0.0,0 STARLINK-3922,1 52584U 22051BA  23191.94243225  .00000604  00000-0  56041-4 0  9991,2 52584  53.2157 165.9500 0001149  85.8797 274.2326 15.08836790 64805,6917.89,95.438,540.55,538.96,0.0
52584.0,STARLINK-3922,PAYLOAD,2023-07-11 08:09:24,15.08839132,0.0001166,53.2159,164.1653,88.0896,272.0229,6.2611e-05,7.09e-06,0.0,0 STARLINK-3922,1 52584U 22051BA  23192.33987090  .00000709  00000-0  62611-4 0  9996,2 52584  53.2159 164.1653 0001166  88.0896 272.0229 15.08839132 64868,6917.883,95.438,540.555,538.941,0.0
52584.0,STARLINK-3922,PAYLOAD,2023-07-12 04:49:25,15.08843989,0.0001209,53.216,160.2996,88.8911,271.2219,2.2235e-05,6.6e-07,0.0,0 STARLINK-3922,1 52584U 22051BA  23193.20098955  .00000066  00000-0  22235-4 0  9990,2 52584  53.2160 160.2996 0001209  88.8911 271.2219 15.08843989 64990,6917.868,95.437,540.57,538.897,0.0
52584.0,STARLINK-3922,PAYLOAD,2023-07-12 14:21:44,15.0883987,0.000117,53.2158,158.5154,86.9236,273.189,2.2236e-05,6.6e-07,0.0,0 STARLINK-3922,1 52584U 22051BA  23193.59843212  .00000066  00000-0  22236-4 0  9997,2 52584  53.2158 158.5154 0001170  86.9236 273.1890 15.08839870 65057,6917.881,95.438,540.555,538.936,0.0
52584.0,STARLINK-3922,PAYLOAD,2023-07-13 06:15:36,15.08835319,0.0001395,53.2176,155.5449,98.5311,261.584,-7.8348e-06,-4.13e-06,0.0,0 STARLINK-3922,1 52584U 22051BA  23194.26083880 -.00000413  00000-0 -78348-5 0  9993,2 52584  53.2176 155.5449 0001395  98.5311 261.5840 15.08835319 65154,6917.895,95.438,540.725,538.795,0.0
52584.0,STARLINK-3922,PAYLOAD,2023-07-14 01:20:14,15.08835241,0.0001352,53.2178,151.977,99.198,260.9165,7.6971e-06,-1.65e-06,0.0,0 STARLINK-3922,1 52584U 22051BA  23195.05572154 -.00000165  00000-0  76971-5 0  9991,2 52584  53.2178 151.9770 0001352  99.1980 260.9165 15.08835241 65275,6917.895,95.438,540.695,538.825,0.0
52584.0,STARLINK-3922,PAYLOAD,2023-07-14 06:06:23,15.08839892,0.0001364,53.2174,151.0848,99.1747,260.94,4.6456e-05,4.52e-06,0.0,0 STARLINK-3922,1 52584U 22051BA  23195.25443795  .00000452  00000-0  46456-4 0  9993,2 52584  53.2174 151.0848 0001364  99.1747 260.9400 15.08839892 65304,6917.881,95.438,540.689,538.802,0.0
52584.0,STARLINK-3922,PAYLOAD,2023-07-14 14:03:19,15.08838854,0.0001344,53.2175,149.5977,95.678,264.4365,6.7765e-05,7.91e-06,0.0,0 STARLINK-3922,1 52584U 22051BA  23195.58563844  .00000791  00000-0  67765-4 0  9999,2 52584  53.2175 149.5977 0001344  95.6780 264.4365 15.08838854 65357,6917.884,95.438,540.679,538.819,0.0
52584.0,STARLINK-3922,PAYLOAD,2023-07-15 01:11:00,15.08840244,0.0001228,53.2168,147.5145,88.7042,271.4091,0.00014884,2.082e-05,0.0,0 STARLINK-3922,1 52584U 22051BA  23196.04931581  .00002082  00000-0  14884-3 0  9996,2 52584  53.2168 147.5145 0001228  88.7042 271.4091 15.08840244 65427,6917.88,95.438,540.594,538.895,0.0
52584.0,STARLINK-3922,PAYLOAD,2023-07-15 05:57:09,15.08846156,0.0001207,53.2166,146.6219,86.9079,273.2051,0.00015283,2.146e-05,0.0,0 STARLINK-3922,1 52584U 22051BA  23196.24803199  .00002146  00000-0  15283-3 0  9996,2 52584  53.2166 146.6219 0001207  86.9079 273.2051 15.08846156 65451,6917.862,95.437,540.562,538.892,0.0
52584.0,STARLINK-3922,PAYLOAD,2023-07-16 02:37:11,15.08837393,0.0001267,53.2169,142.7557,88.9238,271.1899,8.6781e-06,-1.5e-06,0.0,0 STARLINK-3922,1 52584U 22051BA  23197.10916464 -.00000150  00000-0  86781-5 0  9999,2 52584  53.2169 142.7557 0001267  88.9238 271.1899 15.08837393 65585,6917.888,95.438,540.63,538.877,0.0
52584.0,STARLINK-3922,PAYLOAD,2023-07-16 05:47:58,15.0883759,0.0001219,53.2168,142.161,88.0701,272.0431,6.7463e-06,-1.8e-06,0.0,0 STARLINK-3922,1 52584U 22051BA  23197.24164484 -.00000180  00000-0  67463-5 0  9990,2 52584  53.2168 142.1610 0001219  88.0701 272.0431 15.08837590 65605,6917.888,95.438,540.596,538.909,0.0
52584.0,STARLINK-3922,PAYLOAD,2023-07-16 13:44:53,15.08838449,0.0001229,53.2171,140.6745,87.3828,272.7305,2.3259e-05,8.2e-07,0.0,0 STARLINK-3922,1 52584U 22051BA  23197.57284451  .00000082  00000-0  23259-4 0  9997,2 52584  53.2171 140.6745 0001229  87.3828 272.7305 15.08838449 65650,6917.885,95.438,540.6,538.9,0.0
52584.0,STARLINK-3922,PAYLOAD,2023-07-17 13:35:39,15.08851187,0.0001156,53.2166,136.2145,79.268,280.8443,3.8123e-05,3.19e-06,0.0,0 STARLINK-3922,1 52584U 22051BA  23198.56643395  .00000319  00000-0  38123-4 0  9992,2 52584  53.2166 136.2145 0001156  79.2680 280.8443 15.08851187 65808,6917.846,95.437,540.511,538.911,0.0
52584.0,STARLINK-3922,PAYLOAD,2023-07-18 00:43:22,15.0883831,0.0001335,53.2171,134.134,79.4253,280.6889,9.2014e-05,1.177e-05,0.0,0 STARLINK-3922,1 52584U 22051BA  23199.03012275  .00001177  00000-0  92014-4 0  9994,2 52584  53.2171 134.1340 0001335  79.4253 280.6889 15.08838310 65877,6917.886,95.438,540.674,538.827,0.0
52584.0,STARLINK-3922,PAYLOAD,2023-07-18 02:18:45,15.08841975,0.0001392,53.217,133.8334,93.9015,266.2136,0.00013247,1.821e-05,0.0,0 STARLINK-3922,1 52584U 22051BA  23199.09635852  .00001821  00000-0  13247-3 0  9998,2 52584  53.2170 133.8334 0001392  93.9015 266.2136 15.08841975 65882,6917.874,95.437,540.702,538.776,0.0
52584.0,STARLINK-3922,PAYLOAD,2023-07-19 02:09:32,15.08845312,0.0001337,53.2171,129.375,97.3789,262.7355,-1.8728e-05,-5.86e-06,0.0,0 STARLINK-3922,1 52584U 22051BA  23200.08995964 -.00000586  00000-0 -18728-4 0  9992,2 52584  53.2171 129.3750 0001337  97.3789 262.7355 15.08845312 66031,6917.864,95.437,540.654,538.804,0.0
52584.0,STARLINK-3922,PAYLOAD,2023-07-19 19:38:48,15.08817789,0.0001515,53.2185,126.1075,93.0553,267.0612,0.00021289,3.1e-05,0.0,0 STARLINK-3922,1 52584U 22051BA  23200.81861265  .00003100  00000-0  21289-3 0  9997,2 52584  53.2185 126.1075 0001515  93.0553 267.0612 15.08817789 66144,6917.948,95.439,540.861,538.765,0.0
52584.0,STARLINK-3922,PAYLOAD,2023-07-20 19:29:34,15.08835607,0.0001455,53.2175,121.6424,99.0061,261.1095,2.228e-05,6.7e-07,0.0,0 STARLINK-3922,1 52584U 22051BA  23201.81220896  .00000067  00000-0  22280-4 0  9999,2 52584  53.2175 121.6424 0001455  99.0061 261.1095 15.08835607 66299,6917.894,95.438,540.765,538.752,0.0
52584.0,STARLINK-3922,PAYLOAD,2023-07-20 22:40:21,15.08837305,0.0001489,53.2179,121.0479,100.7884,259.3276,3.6221e-05,2.88e-06,0.0,0 STARLINK-3922,1 52584U 22051BA  23201.94468803  .00000288  00000-0  36221-4 0  9990,2 52584  53.2179 121.0479 0001489 100.7884 259.3276 15.08837305 66317,6917.889,95.438,540.784,538.724,0.0
52584.0,STARLINK-3922,PAYLOAD,2023-07-21 00:15:44,15.08838175,0.0001564,53.2173,120.7519,102.3394,257.7774,3.0465e-05,1.97e-06,0.0,0 STARLINK-3922,1 52584U 22051BA  23202.01092772  .00000197  00000-0  30465-4 0  9990,2 52584  53.2173 120.7519 0001564 102.3394 257.7774 15.08838175 66322,6917.886,95.438,540.833,538.669,0.0
52584.0,STARLINK-3922,PAYLOAD,2023-07-23 22:12:42,15.08838409,0.0001186,53.2172,107.6672,76.3408,283.7716,-2.047e-05,-6.14e-06,0.0,0 STARLINK-3922,1 52584U 22051BA  23204.92549411 -.00000614  00000-0 -20470-4 0  9990,2 52584  53.2172 107.6672 0001186  76.3408 283.7716 15.08838409 66696,6917.885,95.438,540.571,538.93,0.0
52584.0,STARLINK-3922,PAYLOAD,2023-07-24 22:03:29,15.08843989,0.0001261,53.2171,103.2076,71.7306,288.3824,4.2044e-05,3.81e-06,0.0,0 STARLINK-3922,1 52584U 22051BA  23205.91908989  .00000381  00000-0  42044-4 0  9999,2 52584  53.2171 103.2076 0001261  71.7306 288.3824 15.08843989 66842,6917.868,95.437,540.606,538.861,0.0
52584.0,STARLINK-3922,PAYLOAD,2023-07-26 02:40:25,15.08842016,0.0001259,53.2169,97.8543,78.3248,281.7885,9.2766e-05,1.189e-05,0.0,0 STARLINK-3922,1 52584U 22051BA  23207.11140958  .00001189  00000-0  92766-4 0  9990,2 52584  53.2169  97.8543 0001259  78.3248 281.7885 15.08842016 67026,6917.874,95.437,540.61,538.868,0.0
52584.0,STARLINK-3922,PAYLOAD,2023-07-26 23:20:26,15.08843557,0.0001207,53.217,93.9885,83.0667,277.0462,3.2708e-05,2.33e-06,0.0,0 STARLINK-3922,1 52584U 22051BA  23207.97252831  .00000233  00000-0  32708-4 0  9997,2 52584  53.2170  93.9885 0001207  83.0667 277.0462 15.08843557 67227,6917.87,95.437,540.57,538.9,0.0
52584.0,STARLINK-3922,PAYLOAD,2023-07-27 08:52:45,15.08836073,0.0001068,53.217,92.2037,85.1953,274.9161,-1.7718e-06,-3.16e-06,0.0,0 STARLINK-3922,1 52584U 22051BA  23208.36997328 -.00000316  00000-0 -17718-5 0  9997,2 52584  53.2170  92.2037 0001068  85.1953 274.9161 15.08836073 67287,6917.892,95.438,540.496,539.019,0.0
52584.0,STARLINK-3922,PAYLOAD,2023-07-27 12:03:32,15.08828791,0.0001055,53.2167,91.6142,81.6648,278.4464,-7.1661e-06,-4.02e-06,0.0,0 STARLINK-3922,1 52584U 22051BA  23208.50245825 -.00000402  00000-0 -71661-5 0  9994,2 52584  53.2167  91.6142 0001055  81.6648 278.4464 15.08828791 67239,6917.915,95.438,540.509,539.05,0.0
52584.0,STARLINK-3922,PAYLOAD,2023-07-27 21:35:51,15.08824657,0.0001261,53.2158,89.8258,97.6844,262.4292,-6.8998e-05,-1.385e-05,0.0,0 STARLINK-3922,1 52584U 22051BA  23208.89990534 -.00001385  00000-0 -68998-4 0  9999,2 52584  53.2158  89.8258 0001261  97.6844 262.4292 15.08824657 67295,6917.927,95.439,540.665,538.92,0.0
52584.0,STARLINK-3922,PAYLOAD,2023-07-27 23:11:14,15.08826712,0.0001059,53.2163,89.5294,101.8106,258.3005,-3.3192e-05,-8.16e-06,0.0,0 STARLINK-3922,1 52584U 22051BA  23208.96614250 -.00000816  00000-0 -33192-4 0  9991,2 52584  53.2163  89.5294 0001059 101.8106 258.3005 15.08826712 67371,6917.921,95.438,540.519,539.053,0.0
52584.0,STARLINK-3922,PAYLOAD,2023-07-28 15:05:05,15.0883675,0.0001187,53.2163,86.5551,100.4528,259.6598,-1.3489e-05,-5.02e-06,0.0,0 STARLINK-3922,1 52584U 22051BA  23209.62853806 -.00000502  00000-0 -13489-4 0  9996,2 52584  53.2163  86.5551 0001187 100.4528 259.6598 15.08836750 67474,6917.89,95.438,540.576,538.934,0.0
